{"type": "FeatureCollection", "features": [ {"type": "Feature", "properties": {"norad_id": 17070, "name": "POLAR BEAR", "group": "nnss", "lat": 83.48184035117312, "lon": 0.32287393185365837, "alt_km": 944.2702357802436, "timestamp": "2025-12-15T04:01:20.720059+00:00", "meta": {"OBJECT_NAME": "POLAR BEAR", "OBJECT_ID": "1986-088A", "EPOCH": "2025-12-14T07:26:29.336064", "MEAN_MOTION": 13.75251027, "ECCENTRICITY": 0.00410614, "INCLINATION": 89.6173, "RA_OF_ASC_NODE": 183.7109, "ARG_OF_PERICENTER": 114.6975, "MEAN_ANOMALY": 58.9174, "EPHEMERIS_TYPE": 0, "CLASSIFICATION_TYPE": "U", "NORAD_CAT_ID": 17070, "ELEMENT_SET_NO": 999, "REV_AT_EPOCH": 96000, "BSTAR": 0.00013053154, "MEAN_MOTION_DOT": 1.37e-06, "MEAN_MOTION_DDOT": 0}, "tle": {"line1": "1 17070U 86088A   25348.31006176  .00000137  00000+0  13053-3 0  9996", "line2": "2 17070  89.6173 183.7109 0041061 114.6975  58.9174 13.75251027960007"}}, "geometry": {"type": "Point", "coordinates": [0.32287393185365837, 83.48184035117312]}}, {"type": "Feature", "properties": {"norad_id": 18361, "name": "OSCAR 27", "group": "nnss", "lat": 88.24845695476667, "lon": 67.02039567128558, "alt_km": 1131.0284268098849, "timestamp": "2025-12-15T04:01:20.720071+00:00", "meta": {"OBJECT_NAME": "OSCAR 27", "OBJECT_ID": "1987-080A", "EPOCH": "2025-12-14T07:56:07.867968", "MEAN_MOTION": 13.44907033, "ECCENTRICITY": 0.01030321, "INCLINATION": 90.3743, "RA_OF_ASC_NODE": 79.3319, "ARG_OF_PERICENTER": 219.2068, "MEAN_ANOMALY": 140.1585, "EPHEMERIS_TYPE": 0, "CLASSIFICATION_TYPE": "U", "NORAD_CAT_ID": 18361, "ELEMENT_SET_NO": 999, "REV_AT_EPOCH": 87578, "BSTAR": 0.00018538473, "MEAN_MOTION_DOT": 1.2e-06, "MEAN_MOTION_DDOT": 0}, "tle": {"line1": "1 18361U 87080A   25348.33064662  .00000120  00000+0  18538-3 0  9994", "line2": "2 18361  90.3743  79.3319 0103032 219.2068 140.1585 13.44907033875789"}}, "geometry": {"type": "Point", "coordinates": [67.02039567128558, 88.24845695476667]}}, {"type": "Feature", "properties": {"norad_id": 18362, "name": "OSCAR 29", "group": "nnss", "lat": 83.2776072790983, "lon": -96.99018022342453, "alt_km": 1147.5131942089984, "timestamp": "2025-12-15T04:01:20.720082+00:00", "meta": {"OBJECT_NAME": "OSCAR 29", "OBJECT_ID": "1987-080B", "EPOCH": "2025-12-14T08:13:44.252256", "MEAN_MOTION": 13.44448674, "ECCENTRICITY": 0.01040087, "INCLINATION": 90.3753, "RA_OF_ASC_NODE": 79.7913, "ARG_OF_PERICENTER": 242.5136, "MEAN_ANOMALY": 185.567, "EPHEMERIS_TYPE": 0, "CLASSIFICATION_TYPE": "U", "NORAD_CAT_ID": 18362, "ELEMENT_SET_NO": 999, "REV_AT_EPOCH": 87531, "BSTAR": 0.00016058983, "MEAN_MOTION_DOT": 1.04e-06, "MEAN_MOTION_DDOT": 0}, "tle": {"line1": "1 18362U 87080B   25348.34287329  .00000104  00000+0  16059-3 0  9991", "line2": "2 18362  90.3753  79.7913 0104008 242.5136 185.5670 13.44448674875312"}}, "geometry": {"type": "Point", "coordinates": [-96.99018022342453, 83.2776072790983]}}, {"type": "Feature", "properties": {"norad_id": 19070, "name": "OSCAR 23", "group": "nnss", "lat": 85.15773620467806, "lon": 12.670402982657354, "alt_km": 1139.9850913756663, "timestamp": "2025-12-15T04:01:20.720092+00:00", "meta": {"OBJECT_NAME": "OSCAR 23", "OBJECT_ID": "1988-033A", "EPOCH": "2025-12-14T07:44:51.781056", "MEAN_MOTION": 13.27787278, "ECCENTRICITY": 0.01896581, "INCLINATION": 90.3213, "RA_OF_ASC_NODE": 16.4418, "ARG_OF_PERICENTER": 175.5215, "MEAN_ANOMALY": 196.1022, "EPHEMERIS_TYPE": 0, "CLASSIFICATION_TYPE": "U", "NORAD_CAT_ID": 19070, "ELEMENT_SET_NO": 999, "REV_AT_EPOCH": 82274, "BSTAR": 0.00017997408, "MEAN_MOTION_DOT": 9.8e-07, "MEAN_MOTION_DDOT": 0}, "tle": {"line1": "1 19070U 88033A   25348.32282154  .00000098  00000+0  17997-3 0  9990", "line2": "2 19070  90.3213  16.4418 0189658 175.5215 196.1022 13.27787278822740"}}, "geometry": {"type": "Point", "coordinates": [12.670402982657354, 85.15773620467806]}}, {"type": "Feature", "properties": {"norad_id": 19071, "name": "OSCAR 32", "group": "nnss", "lat": -20.61628253731573, "lon": -163.52087559900824, "alt_km": 1050.527313691824, "timestamp": "2025-12-15T04:01:20.720103+00:00", "meta": {"OBJECT_NAME": "OSCAR 32", "OBJECT_ID": "1988-033B", "EPOCH": "2025-12-14T03:52:28.805664", "MEAN_MOTION": 13.27954178, "ECCENTRICITY": 0.01884826, "INCLINATION": 90.3217, "RA_OF_ASC_NODE": 16.5688, "ARG_OF_PERICENTER": 162.8444, "MEAN_ANOMALY": 269.0079, "EPHEMERIS_TYPE": 0, "CLASSIFICATION_TYPE": "U", "NORAD_CAT_ID": 19071, "ELEMENT_SET_NO": 999, "REV_AT_EPOCH": 82284, "BSTAR": 0.00018543777, "MEAN_MOTION_DOT": 1.01e-06, "MEAN_MOTION_DDOT": 0}, "tle": {"line1": "1 19071U 88033B   25348.16144451  .00000101  00000+0  18544-3 0  9994", "line2": "2 19071  90.3217  16.5688 0188482 162.8444 269.0079 13.27954178822840"}}, "geometry": {"type": "Point", "coordinates": [-163.52087559900824, -20.61628253731573]}}, {"type": "Feature", "properties": {"norad_id": 19223, "name": "NOVA 2", "group": "nnss", "lat": -7.669137338229244, "lon": 78.26776352270518, "alt_km": 1155.4748131680126, "timestamp": "2025-12-15T04:01:20.720113+00:00", "meta": {"OBJECT_NAME": "NOVA 2", "OBJECT_ID": "1988-052A", "EPOCH": "2025-12-14T06:20:25.233216", "MEAN_MOTION": 13.22936021, "ECCENTRICITY": 0.00304623, "INCLINATION": 89.9872, "RA_OF_ASC_NODE": 78.2706, "ARG_OF_PERICENTER": 12.749, "MEAN_ANOMALY": 359.6927, "EPHEMERIS_TYPE": 0, "CLASSIFICATION_TYPE": "U", "NORAD_CAT_ID": 19223, "ELEMENT_SET_NO": 999, "REV_AT_EPOCH": 80968, "BSTAR": 0.00011228326, "MEAN_MOTION_DOT": 5.6e-07, "MEAN_MOTION_DDOT": 0}, "tle": {"line1": "1 19223U 88052A   25348.26418094  .00000056  00000+0  11228-3 0  9993", "line2": "2 19223  89.9872  78.2706 0030462  12.7490 359.6927 13.22936021809681"}}, "geometry": {"type": "Point", "coordinates": [78.26776352270518, -7.669137338229244]}}, {"type": "Feature", "properties": {"norad_id": 19419, "name": "OSCAR 25", "group": "nnss", "lat": -60.677568928873534, "lon": -159.80927494878023, "alt_km": 1036.1076284828732, "timestamp": "2025-12-15T04:01:20.720124+00:00", "meta": {"OBJECT_NAME": "OSCAR 25", "OBJECT_ID": "1988-074A", "EPOCH": "2025-12-14T03:54:01.797120", "MEAN_MOTION": 13.4262354, "ECCENTRICITY": 0.00945049, "INCLINATION": 90.0346, "RA_OF_ASC_NODE": 20.2489, "ARG_OF_PERICENTER": 241.7117, "MEAN_ANOMALY": 183.7405, "EPHEMERIS_TYPE": 0, "CLASSIFICATION_TYPE": "U", "NORAD_CAT_ID": 19419, "ELEMENT_SET_NO": 999, "REV_AT_EPOCH": 82659, "BSTAR": 0.00018950105, "MEAN_MOTION_DOT": 1.19e-06, "MEAN_MOTION_DDOT": 0}, "tle": {"line1": "1 19419U 88074A   25348.16252080  .00000119  00000+0  18950-3 0  9993", "line2": "2 19419  90.0346  20.2489 0094504 241.7117 183.7405 13.42623540826596"}}, "geometry": {"type": "Point", "coordinates": [-159.80927494878023, -60.677568928873534]}}, {"type": "Feature", "properties": {"norad_id": 19420, "name": "OSCAR 31", "group": "nnss", "lat": 56.92937622752162, "lon": -159.3414739015625, "alt_km": 1117.398348782539, "timestamp": "2025-12-15T04:01:20.720134+00:00", "meta": {"OBJECT_NAME": "OSCAR 31", "OBJECT_ID": "1988-074B", "EPOCH": "2025-12-14T07:47:03.731136", "MEAN_MOTION": 13.42584812, "ECCENTRICITY": 0.00928418, "INCLINATION": 90.0363, "RA_OF_ASC_NODE": 20.5997, "ARG_OF_PERICENTER": 235.3714, "MEAN_ANOMALY": 135.3555, "EPHEMERIS_TYPE": 0, "CLASSIFICATION_TYPE": "U", "NORAD_CAT_ID": 19420, "ELEMENT_SET_NO": 999, "REV_AT_EPOCH": 82672, "BSTAR": 0.00016778534, "MEAN_MOTION_DOT": 1.06e-06, "MEAN_MOTION_DDOT": 0}, "tle": {"line1": "1 19420U 88074B   25348.32434874  .00000106  00000+0  16779-3 0  9999", "line2": "2 19420  90.0363  20.5997 0092841 235.3714 135.3555 13.42584812826720"}}, "geometry": {"type": "Point", "coordinates": [-159.3414739015625, 56.92937622752162]}}]}